{"type": "FeatureCollection", "features": [{"type": "Feature", "properties": {"norad_id": 24946, "name": "IRIDIUM 33", "group": "iridium-33-debris", "lat": -7.963987165859238, "lon": 63.95401665759599, "alt_km": 784.7070567370301, "timestamp": "2025-12-21T16:47:55.123204+00:00", "meta": {"OBJECT_NAME": "IRIDIUM 33", "OBJECT_ID": "1997-051C", "EPOCH": "2025-12-21T05:07:17.080032", "MEAN_MOTION": 14.35042893, "ECCENTRICITY": 0.0008046, "INCLINATION": 86.3863, "RA_OF_ASC_NODE": 64.6648, "ARG_OF_PERICENTER": 172.1604, "MEAN_ANOMALY": 187.9719, "EPHEMERIS_TYPE": 0, "CLASSIFICATION_TYPE": "U", "NORAD_CAT_ID": 24946, "ELEMENT_SET_NO": 999, "REV_AT_EPOCH": 47956, "BSTAR": 9.3366e-05, "MEAN_MOTION_DOT": 2.86e-06, "MEAN_MOTION_DDOT": 0}, "tle": {"line1": "1 24946U 97051C   25355.21339213  .00000286  00000+0  93366-4 0  9997", "line2": "2 24946  86.3863  64.6648 0008046 172.1604 187.9719 14.35042893479566"}}, "geometry": {"type": "Point", "coordinates": [63.95401665759599, -7.963987165859238]}}, {"type": "Feature", "properties": {"norad_id": 33773, "name": "IRIDIUM 33 DEB", "group": "iridium-33-debris", "lat": -34.276428981006475, "lon": -120.74848425874026, "alt_km": 754.6333766611106, "timestamp": "2025-12-21T16:47:55.123246+00:00", "meta": {"OBJECT_NAME": "IRIDIUM 33 DEB", "OBJECT_ID": "1997-051L", "EPOCH": "2025-12-21T05:49:35.518080", "MEAN_MOTION": 14.43273713, "ECCENTRICITY": 0.0013116, "INCLINATION": 86.4002, "RA_OF_ASC_NODE": 56.9862, "ARG_OF_PERICENTER": 121.8026, "MEAN_ANOMALY": 238.4454, "EPHEMERIS_TYPE": 0, "CLASSIFICATION_TYPE": "U", "NORAD_CAT_ID": 33773, "ELEMENT_SET_NO": 999, "REV_AT_EPOCH": 88470, "BSTAR": 0.0002336, "MEAN_MOTION_DOT": 8.07e-06, "MEAN_MOTION_DDOT": 0}, "tle": {"line1": "1 33773U 97051L   25355.24277220  .00000807  00000+0  23360-3 0  9992", "line2": "2 33773  86.4002  56.9862 0013116 121.8026 238.4454 14.43273713884705"}}, "geometry": {"type": "Point", "coordinates": [-120.74848425874026, -34.276428981006475]}}, {"type": "Feature", "properties": {"norad_id": 33775, "name": "IRIDIUM 33 DEB", "group": "iridium-33-debris", "lat": -60.031879598688, "lon": -127.93841492285908, "alt_km": 764.9082165441359, "timestamp": "2025-12-21T16:47:55.123263+00:00", "meta": {"OBJECT_NAME": "IRIDIUM 33 DEB", "OBJECT_ID": "1997-051N", "EPOCH": "2025-12-21T12:36:39.335328", "MEAN_MOTION": 14.41485741, "ECCENTRICITY": 0.0015083, "INCLINATION": 86.3627, "RA_OF_ASC_NODE": 45.8025, "ARG_OF_PERICENTER": 128.3551, "MEAN_ANOMALY": 286.7487, "EPHEMERIS_TYPE": 0, "CLASSIFICATION_TYPE": "U", "NORAD_CAT_ID": 33775, "ELEMENT_SET_NO": 999, "REV_AT_EPOCH": 88267, "BSTAR": 0.00024711, "MEAN_MOTION_DOT": 8.23e-06, "MEAN_MOTION_DDOT": 0}, "tle": {"line1": "1 33775U 97051N   25355.52545527  .00000823  00000+0  24711-3 0  9992", "line2": "2 33775  86.3627  45.8025 0015083 128.3551 286.7487 14.41485741882677"}}, "geometry": {"type": "Point", "coordinates": [-127.93841492285908, -60.031879598688]}}, {"type": "Feature", "properties": {"norad_id": 33776, "name": "IRIDIUM 33 DEB", "group": "iridium-33-debris", "lat": 5.286844126611079, "lon": 77.34656205379386, "alt_km": 776.634180782693, "timestamp": "2025-12-21T16:47:55.123278+00:00", "meta": {"OBJECT_NAME": "IRIDIUM 33 DEB", "OBJECT_ID": "1997-051P", "EPOCH": "2025-12-21T05:21:01.511424", "MEAN_MOTION": 14.38249202, "ECCENTRICITY": 0.0015311, "INCLINATION": 86.4033, "RA_OF_ASC_NODE": 77.2134, "ARG_OF_PERICENTER": 163.1939, "MEAN_ANOMALY": 254.0485, "EPHEMERIS_TYPE": 0, "CLASSIFICATION_TYPE": "U", "NORAD_CAT_ID": 33776, "ELEMENT_SET_NO": 999, "REV_AT_EPOCH": 88204, "BSTAR": 0.00022734, "MEAN_MOTION_DOT": 7.11e-06, "MEAN_MOTION_DDOT": 0}, "tle": {"line1": "1 33776U 97051P   25355.22293416  .00000711  00000+0  22734-3 0  9996", "line2": "2 33776  86.4033  77.2134 0015311 163.1939 254.0485 14.38249202882044"}}, "geometry": {"type": "Point", "coordinates": [77.34656205379386, 5.286844126611079]}}, {"type": "Feature", "properties": {"norad_id": 33777, "name": "IRIDIUM 33 DEB", "group": "iridium-33-debris", "lat": -6.36381021388216, "lon": 30.900477429937137, "alt_km": 714.4018044818677, "timestamp": "2025-12-21T16:47:55.123290+00:00", "meta": {"OBJECT_NAME": "IRIDIUM 33 DEB", "OBJECT_ID": "1997-051Q", "EPOCH": "2025-12-21T11:52:42.684672", "MEAN_MOTION": 14.55669187, "ECCENTRICITY": 0.0005886, "INCLINATION": 86.3773, "RA_OF_ASC_NODE": 31.3945, "ARG_OF_PERICENTER": 211.2046, "MEAN_ANOMALY": 148.8813, "EPHEMERIS_TYPE": 0, "CLASSIFICATION_TYPE": "U", "NORAD_CAT_ID": 33777, "ELEMENT_SET_NO": 999, "REV_AT_EPOCH": 88661, "BSTAR": 0.00060679, "MEAN_MOTION_DOT": 2.671e-05, "MEAN_MOTION_DDOT": 0}, "tle": {"line1": "1 33777U 97051Q   25355.49493848  .00002671  00000+0  60679-3 0  9994", "line2": "2 33777  86.3773  31.3945 0005886 211.2046 148.8813 14.55669187886615"}}, "geometry": {"type": "Point", "coordinates": [30.900477429937137, -6.36381021388216]}}, {"type": "Feature", "properties": {"norad_id": 33850, "name": "IRIDIUM 33 DEB", "group": "iridium-33-debris", "lat": -62.738507319960455, "lon": -146.53952575365128, "alt_km": 761.5949016934064, "timestamp": "2025-12-21T16:47:55.123302+00:00", "meta": {"OBJECT_NAME": "IRIDIUM 33 DEB", "OBJECT_ID": "1997-051T", "EPOCH": "2025-12-21T12:54:25.324704", "MEAN_MOTION": 14.4216572, "ECCENTRICITY": 0.0013029, "INCLINATION": 86.3408, "RA_OF_ASC_NODE": 26.3962, "ARG_OF_PERICENTER": 134.7554, "MEAN_ANOMALY": 346.6938, "EPHEMERIS_TYPE": 0, "CLASSIFICATION_TYPE": "U", "NORAD_CAT_ID": 33850, "ELEMENT_SET_NO": 999, "REV_AT_EPOCH": 88279, "BSTAR": 0.00030357, "MEAN_MOTION_DOT": 1.019e-05, "MEAN_MOTION_DDOT": 0}, "tle": {"line1": "1 33850U 97051T   25355.53779311  .00001019  00000+0  30357-3 0  9998", "line2": "2 33850  86.3408  26.3962 0013029 134.7554 346.6938 14.42165720882797"}}, "geometry": {"type": "Point", "coordinates": [-146.53952575365128, -62.738507319960455]}}, {"type": "Feature", "properties": {"norad_id": 33853, "name": "IRIDIUM 33 DEB", "group": "iridium-33-debris", "lat": -39.142095617688234, "lon": -17.382810143255412, "alt_km": 958.8495020883192, "timestamp": "2025-12-21T16:47:55.123315+00:00", "meta": {"OBJECT_NAME": "IRIDIUM 33 DEB", "OBJECT_ID": "1997-051W", "EPOCH": "2025-12-20T22:14:35.888928", "MEAN_MOTION": 13.9910315, "ECCENTRICITY": 0.0207332, "INCLINATION": 85.9999, "RA_OF_ASC_NODE": 346.2208, "ARG_OF_PERICENTER": 210.5493, "MEAN_ANOMALY": 176.3282, "EPHEMERIS_TYPE": 0, "CLASSIFICATION_TYPE": "U", "NORAD_CAT_ID": 33853, "ELEMENT_SET_NO": 999, "REV_AT_EPOCH": 85460, "BSTAR": 0.0010168, "MEAN_MOTION_DOT": 1.786e-05, "MEAN_MOTION_DDOT": 0}, "tle": {"line1": "1 33853U 97051W   25354.92680427  .00001786  00000+0  10168-2 0  9990", "line2": "2 33853  85.9999 346.2208 0207332 210.5493 176.3282 13.99103150854603"}}, "geometry": {"type": "Point", "coordinates": [-17.382810143255412, -39.142095617688234]}}, {"type": "Feature", "properties": {"norad_id": 33860, "name": "IRIDIUM 33 DEB", "group": "iridium-33-debris", "lat": -86.36485352149116, "lon": -61.524291747873676, "alt_km": 673.9434956216182, "timestamp": "2025-12-21T16:47:55.123327+00:00", "meta": {"OBJECT_NAME": "IRIDIUM 33 DEB", "OBJECT_ID": "1997-051AD", "EPOCH": "2025-12-21T13:01:46.627392", "MEAN_MOTION": 14.67463908, "ECCENTRICITY": 0.000638, "INCLINATION": 86.3822, "RA_OF_ASC_NODE": 23.3411, "ARG_OF_PERICENTER": 324.1868, "MEAN_ANOMALY": 197.1056, "EPHEMERIS_TYPE": 0, "CLASSIFICATION_TYPE": "U", "NORAD_CAT_ID": 33860, "ELEMENT_SET_NO": 999, "REV_AT_EPOCH": 88851, "BSTAR": 0.00083483, "MEAN_MOTION_DOT": 4.749e-05, "MEAN_MOTION_DDOT": 0}, "tle": {"line1": "1 33860U 97051AD  25355.54290078  .00004749  00000+0  83483-3 0  9999", "line2": "2 33860  86.3822  23.3411 0006380 324.1868 197.1056 14.67463908888511"}}, "geometry": {"type": "Point", "coordinates": [-61.524291747873676, -86.36485352149116]}}, {"type": "Feature", "properties": {"norad_id": 33862, "name": "IRIDIUM 33 DEB", "group": "iridium-33-debris", "lat": 13.687807976858597, "lon": 34.455527005021764, "alt_km": 629.9586659116221, "timestamp": "2025-12-21T16:47:55.123338+00:00", "meta": {"OBJECT_NAME": "IRIDIUM 33 DEB", "OBJECT_ID": "1997-051AF", "EPOCH": "2025-12-21T03:56:03.630624", "MEAN_MOTION": 14.69594486, "ECCENTRICITY": 0.00526121, "INCLINATION": 86.4078, "RA_OF_ASC_NODE": 33.8153, "ARG_OF_PERICENTER": 40.9364, "MEAN_ANOMALY": 19.2005, "EPHEMERIS_TYPE": 0, "CLASSIFICATION_TYPE": "U", "NORAD_CAT_ID": 33862, "ELEMENT_SET_NO": 999, "REV_AT_EPOCH": 88947, "BSTAR": 0.00086312918, "MEAN_MOTION_DOT": 5.261e-05, "MEAN_MOTION_DDOT": 0}, "tle": {"line1": "1 33862U 97051AF  25355.16393091  .00005261  00000+0  86313-3 0  9993", "line2": "2 33862  86.4078  33.8153 0052612  40.9364  19.2005 14.69594486889471"}}, "geometry": {"type": "Point", "coordinates": [34.455527005021764, 13.687807976858597]}}, {"type": "Feature", "properties": {"norad_id": 33866, "name": "IRIDIUM 33 DEB", "group": "iridium-33-debris", "lat": 85.19899176069352, "lon": -141.1456211693515, "alt_km": 736.2425934106122, "timestamp": "2025-12-21T16:47:55.123349+00:00", "meta": {"OBJECT_NAME": "IRIDIUM 33 DEB", "OBJECT_ID": "1997-051AK", "EPOCH": "2025-12-21T06:30:23.838336", "MEAN_MOTION": 14.25298734, "ECCENTRICITY": 0.0115015, "INCLINATION": 86.3001, "RA_OF_ASC_NODE": 89.4265, "ARG_OF_PERICENTER": 134.3497, "MEAN_ANOMALY": 280.5396, "EPHEMERIS_TYPE": 0, "CLASSIFICATION_TYPE": "U", "NORAD_CAT_ID": 33866, "ELEMENT_SET_NO": 999, "REV_AT_EPOCH": 86932, "BSTAR": 0.00042898, "MEAN_MOTION_DOT": 1.102e-05, "MEAN_MOTION_DDOT": 0}, "tle": {"line1": "1 33866U 97051AK  25355.27110924  .00001102  00000+0  42898-3 0  9991", "line2": "2 33866  86.3001  89.4265 0115015 134.3497 280.5396 14.25298734869320"}}, "geometry": {"type": "Point", "coordinates": [-141.1456211693515, 85.19899176069352]}}]}